FENGYUN 1C DEB          
1 29736U 99025AA  17345.89734064  .00000166  00000-0  45891-3 0  9996
2 29736  99.4248 325.8182 0735695 315.6397 110.0903 12.53828552498830
